1 08820U 76039A   03152.92336290  .00000013  00000-0  10000-3 0  9525
2 08820 109.8052 176.3778 0044637 304.6679  54.9810  6.38664377376084
